A/2021 E4,e,116.3597,171.1728,48.2868,728.7759,0.0000501,0.99358393,0.0000,04/25.3811/2022,2000,g 13.5,2.0
# From MPEC 2021-R75
A/2021 F1,e,107.3213,203.4485,146.8175,238.6677,0.0002673,0.99582876,0.0000,04/06.8712/2022,2000,g 17.5,2.0
# From MPEC 2021-J72
C/2021 G1 (Leonard),e,131.5662,270.6928,107.4808,75.15345,0.0015128,0.95444439,0.0693,09/06.0/2021,2000,g 14.0,4.0
# From MPEC 2021-M79
A/2021 G2,e,48.4748,221.1356,343.3825,4490,0.0000033,0.99889160,0.0000,09/09.9334/2024,2000,g  8.5,2.0
# From MPEC 2021-M86
C/2021 G3 (PANSTARRS),h,10/18.6779/2021,102.8833,147.4188,10.6565,1.001146,5.181128,2000,10.5,4.0
# From MPEC 2021-R75
C/2021 J1 (Maury-Attard),e,92.7077,88.3144,147.3031,26.24667,0.0073298,0.93369460,1.4554,09/06.0/2021,2000,g 15.5,4.0
# From MPEC 2021-R75
C/2021 J2 (PANSTARRS),e,156.2069,23.3292,172.0610,116.7518,0.0007813,0.95968615,359.9871,09/06.0/2021,2000,g 12.0,4.0
# From MPEC 2021-R75
P/2021 J3 (ATLAS),e,14.5643,111.2310,125.8091,8.933232,0.0369140,0.45026967,29.3386,09/06.0/2021,2000,g  7.0,4.0
# From MPEC 2021-R75
C/2021 K1 (ATLAS),e,16.2760,140.9055,184.3013,12.73683,0.0216826,0.80389161,2.6980,09/06.0/2021,2000,g 11.0,4.0
# From MPEC 2021-R75
C/2021 K2 (MASTER),h,09/09.0787/2021,100.8404,282.2476,343.3146,1.000621,5.466622,2000,8.0,4.0
# From MPEC 2021-R75
C/2021 K3 (Catalina),h,02/02.3035/2022,134.8096,114.4377,181.9530,1.007228,5.231110,2000,10.0,4.0
# From MPEC 2021-R75
P/2021 L2 (Leonard),e,21.0687,266.6727,51.5333,4.053919,0.1207512,0.52180246,5.2495,09/06.0/2021,2000,g 17.0,4.0
# From MPEC 2021-R75
C/2021 L3 (Borisov),h,02/12.1891/2022,78.5800,344.9727,91.5113,1.001945,8.459923,2000,6.0,4.0
# From MPEC 2021-R75
P/2021 L4 (PANSTARRS),e,16.9616,243.2250,234.6339,3.165013,0.1750414,0.11862244,128.2790,09/06.0/2021,2000,g 13.5,4.0
# From MPEC 2021-P47
P/2021 N1 (ZTF),e,11.5060,301.1633,21.1903,2.977001,0.1918826,0.67678725,17.5471,09/06.0/2021,2000,g 19.0,4.0
# From MPEC 2021-R75
P/2021 N2 (Fuls),e,13.0612,221.7460,177.2375,6.940054,0.0539088,0.45284030,356.3532,09/06.0/2021,2000,g  9.5,4.0
# From MPEC 2021-R75
C/2021 N3 (PANSTARRS),e,26.7327,337.5079,304.3363,167.2390,0.0004557,0.96593437,0.1755,09/06.0/2021,2000,g  8.5,4.0
# From MPEC 2021-R75
P/2021 N4,e,10.0669,239.1584,105.2984,3.037528,0.1861760,0.24248679,1.1890,09/06.0/2021,2000,g 17.0,4.0
# From MPEC 2021-R75
C/2021 O1 (Nishimura),h,08/13.9283/2021,27.5725,41.6083,74.4509,1.000177,0.786989,2000,10.5,4.0
# From MPEC 2021-R75
C/2021 O3 (PANSTARRS),h,04/20.9969/2022,56.7698,189.0288,299.9820,1.000248,0.287169,2000,10.5,4.0
# From MPEC 2021-R75
C/2021 P1 (PANSTARRS),h,06/01.6739/2022,51.6203,359.6712,40.3617,1.000188,4.374894,2000,11.0,4.0
# From MPEC 2021-R75
C/2021 P2 (PANSTARRS),e,150.0188,31.9930,76.4936,1894,0.0000120,0.99732173,0.0000,01/21.9283/2023,2000,g  9.0,4.0
# From MPEC 2021-R75
P/2021 P3 (PANSTARRS),e,27.1614,358.2368,334.3269,4.420650,0.1060412,0.34016540,10.3489,09/06.0/2021,2000,g 14.0,4.0
# From MPEC 2021-R75
C/2021 P4 (ATLAS),e,56.3257,348.1213,175.7634,267.4903,0.0002253,0.99594978,0.0000,07/30.8254/2022,2000,g  9.5,4.0
# From MPEC 2021-R75
C/2021 Q3 (ATLAS),e,77.7703,308.0145,113.7205,79.22034,0.0013978,0.93416442,359.8055,09/06.0/2021,2000,g  8.0,4.0
# From MPEC 2021-R75
C/2021 Q4 (Fuls),h,06/08.8025/2023,71.4747,183.3298,146.8840,1.003519,7.567889,2000,6.0,4.0
# From MPEC 2021-R98
P/2021 Q5 (ATLAS),e,10.7295,239.7003,180.8114,3.228184,0.1699287,0.61814238,1.1313,09/06.0/2021,2000,g 15.0,4.0
# From  98, 1083
1P/Halley,e,162.2479,58.7733,111.7068,17.87286,0.0130441,0.96619648,169.5081,09/06.0/2021,2000,g  4.0,6.0
# From MPEC 2021-R75
2P/Encke,e,11.8056,334.5141,186.6187,2.217743,0.2984264,0.84905980,130.2209,09/06.0/2021,2000,g 11.5,6.0
# From MPEC 2021-R75
4P/Faye,e,8.0083,192.9316,206.9960,3.823461,0.1318314,0.57659932,359.6269,09/06.0/2021,2000,g  8.0,6.0
# From MPEC 2021-R75
6P/d'Arrest,e,19.5125,138.9355,178.1013,3.498387,0.1506268,0.61279044,358.2258,09/06.0/2021,2000,g  7.5,16.0
# From MPEC 2021-R75
7P/Pons-Winnecke,e,22.3625,93.3725,172.5976,3.414380,0.1562199,0.63852437,15.9168,09/06.0/2021,2000,g 10.0,6.0
# From MPEC 2021-R75
8P/Tuttle,e,54.9109,270.2040,207.4867,5.707962,0.0722741,0.82024804,0.6696,09/06.0/2021,2000,g  8.0,8.0
# From MPEC 2021-F20
9P/Tempel,e,10.4697,68.7176,179.3418,3.146601,0.1765800,0.50924029,328.2266,09/06.0/2021,2000,g 12.5,4.0
# From MPEC 2021-R75
10P/Tempel,e,12.0395,117.8082,195.4947,3.060812,0.1840556,0.53854195,30.5060,09/06.0/2021,2000,g  5.0,10.0
# From MPEC 2017-L52
11P/Tempel-Swift-LINEAR,e,14.4205,238.9074,167.9540,3.283505,0.1656523,0.57707962,47.0055,09/06.0/2021,2000,g  9.0,4.0
# From  27, 604
12P/Pons-Brooks,e,74.1311,255.7700,198.9974,17.14204,0.0138871,0.95439126,346.6999,09/06.0/2021,2000,g  5.0,6.0
# From  27, 604
13P/Olbers,e,44.6216,85.9111,64.4424,16.72380,0.0144112,0.92975524,345.1658,09/06.0/2021,2000,g  5.0,6.0
# From MPEC 2021-F20
14P/Wolf,e,27.9145,202.0519,159.0189,4.258546,0.1121533,0.35702951,153.9941,09/06.0/2021,2000,g  5.5,12.0
# From MPEC 2021-R75
15P/Finlay,e,6.7976,13.7137,347.8236,3.505486,0.1501695,0.71701790,8.1882,09/06.0/2021,2000,g 12.0,4.0
# From MPC 92276
16P/Brooks,e,3.0119,138.8700,245.1772,3.655729,0.1410078,0.48625708,19.8576,09/06.0/2021,2000,g  7.5,10.0
# From MPEC 2021-R75
17P/Holmes,e,19.0322,326.6200,24.4744,3.635320,0.1421969,0.42762523,28.1785,09/06.0/2021,2000,g 10.0,6.0
# From MPEC 2021-P47
19P/Borrelly,e,29.3045,74.2532,351.9001,3.605945,0.1439380,0.63772009,338.5804,09/06.0/2021,2000,g  4.5,10.0
# From MPEC 2021-F20
21P/Giacobini-Zinner,e,32.0397,195.3478,172.8597,3.495699,0.1508006,0.71102527,164.5535,09/06.0/2021,2000,g 11.4,4.0
# From MPEC 2021-F20
22P/Kopff,e,4.7419,120.8358,163.0045,3.440913,0.1544164,0.54882181,330.1913,09/06.0/2021,2000,g 12.4,4.0
# From MPC 14747
23P/Brorsen-Metcalf,e,19.1356,312.4097,128.8104,16.94937,0.0141245,0.97141503,0.0000,08/05.0348/1989,2000,g 10.0,6.0
# From MPC110085
24P/Schaumasse,e,11.5332,78.5988,58.2607,4.053164,0.1207849,0.70826292,168.2735,09/06.0/2021,2000,g  6.5,14.0
# From MPC 94674
26P/Grigg-Skjellerup,e,22.4340,211.5400,2.1782,3.014360,0.1883265,0.64033452,201.6766,09/06.0/2021,2000,g 12.0,16.0
# From MPC 78188
27P/Crommelin,e,29.2164,250.6093,195.9361,9.184918,0.0354072,0.91830296,130.9324,09/06.0/2021,2000,g 12.0,8.0
# From MPEC 2021-R75
28P/Neujmin,e,14.3121,346.3319,347.4092,6.975454,0.0534990,0.77373615,9.5294,09/06.0/2021,2000,g  8.5,6.0
# From MPEC 2021-R75
29P/Schwassmann-Wachmann,e,9.3668,312.3761,49.3377,6.039582,0.0664039,0.04469386,59.2156,09/06.0/2021,2000,g  4.0,4.0
# From MPC110085
30P/Reinmuth,e,8.2361,118.3229,9.6615,3.695760,0.1387230,0.52480236,211.1591,09/06.0/2021,2000,g  9.5,6.0
# From MPEC 2021-F20
31P/Schwassmann-Wachmann,e,4.5473,114.1103,18.1158,4.238448,0.1129520,0.19213467,89.7289,09/06.0/2021,2000,g 13.1,4.0
# From MPC 92276
32P/Comas Sola,e,9.8731,56.0789,54.4275,4.507311,0.1029978,0.55970847,261.2791,09/06.0/2021,2000,g  6.5,8.0
# From MPEC 2013-O31
33P/Daniel,e,22.3003,66.3199,20.5361,4.085646,0.1193474,0.45165215,221.1485,09/06.0/2021,2000,g 10.0,12.0
# From  15, 452
35P/Herschel-Rigollet,e,65.168,356.666,28.970,28.5596,0.006458,0.9739047,0.000,01/04.0022/2092,2000,g  9.0,4.0
# From MPEC 2021-F20
36P/Whipple,e,9.9518,181.8496,200.8667,4.133699,0.1172724,0.26893381,54.1719,09/06.0/2021,2000,g 14.2,4.0
# From MPEC 2021-F20
37P/Forbes,e,8.9574,314.5598,330.1206,3.460373,0.1531157,0.53376214,186.9074,09/06.0/2021,2000,g 13.8,4.0
# From MPEC 2018-S50
38P/Stephan-Oterma,e,18.3639,77.9625,359.5051,11.23810,0.0261616,0.85900300,26.9459,09/06.0/2021,2000,g  3.5,12.0
# From MPEC 2020-W26
39P/Oterma,e,1.5576,299.1427,96.2540,7.380079,0.0491601,0.22366930,329.1673,09/06.0/2021,2000,g  7.0,6.0
# From MPC100283
40P/Vaisala,e,11.4692,133.7776,47.4177,4.952616,0.0894236,0.62962404,222.8311,09/06.0/2021,2000,g  5.5,12.0
# From MPC105240
41P/Tuttle-Giacobini-Kresak,e,9.2209,140.9874,62.2404,3.087288,0.1816931,0.65997804,292.3331,09/06.0/2021,2000,g 10.0,16.0
# From MPC 94283
42P/Neujmin,e,3.9912,150.1764,147.2235,4.872982,0.0916245,0.58530845,214.2971,09/06.0/2021,2000,g 13.0,6.0
# From MPC102956
43P/Wolf-Harrington,e,9.3391,244.1473,224.1222,4.315216,0.1099513,0.43585547,202.7051,09/06.0/2021,2000,g  8.0,6.0
# From MPEC 2021-R75
44P/Reinmuth,e,5.8982,286.4810,58.1276,3.689667,0.1390667,0.42746794,328.0945,09/06.0/2021,2000,g  8.3,6.0
# From MPC103849
45P/Honda-Mrkos-Pajdusakova,e,4.3232,87.7064,327.9145,3.052212,0.1848340,0.81749389,317.2017,09/06.0/2021,2000,g 13.5,8.0
# From MPEC 2021-O56
46P/Wirtanen,e,11.7442,82.1571,356.3393,3.092013,0.1812767,0.65832135,181.0723,09/06.0/2021,2000,g 14.0,6.0
# From MPEC 2021-F20
47P/Ashbrook-Jackson,e,13.0401,356.9206,357.6416,4.123777,0.1176959,0.31844250,182.0960,09/06.0/2021,2000,g 12.2,4.0
# From MPEC 2021-F20
48P/Johnson,e,12.2060,110.1230,216.6648,3.500867,0.1504668,0.42743755,168.5322,09/06.0/2021,2000,g 12.4,4.0
# From MPEC 2021-F20
49P/Arend-Rigaux,e,19.0456,118.7977,332.9416,3.569872,0.1461252,0.59822181,168.0194,09/06.0/2021,2000,g 13.4,4.0
# From MPEC 2015-S97
50P/Arend,e,19.1004,355.1760,49.3093,4.088714,0.1192131,0.52905897,243.1364,09/06.0/2021,2000,g  9.5,6.0
# From NK 3014
51P-A/Harrington,e,5.4258,83.6768,269.2543,3.708098,0.1380312,0.54345635,305.7605,09/06.0/2021,2000,g 10.0,8.0
# From NK 3013
51P-D/Harrington,e,5.4265,83.6617,269.2929,3.707108,0.1380865,0.54338622,306.0361,09/06.0/2021,2000,g 16.0,8.0
# From MPEC 2021-R75
52P/Harrington-Abell,e,10.2317,336.8380,139.5950,3.864053,0.1297596,0.54006087,356.2118,09/06.0/2021,2000,g 13.5,6.0
# From MPC100283
53P/Van Biesbroeck,e,6.6095,148.8108,134.4876,5.427864,0.0779400,0.55173415,152.3055,09/06.0/2021,2000,g  7.7,4.8
# From MPC 89011
54P/de Vico-Swift-NEAT,e,6.0644,358.8163,1.7878,3.791276,0.1335137,0.42609205,213.9843,09/06.0/2021,2000,g  9.0,4.0
# From MPC 31070
55P/Tempel-Tuttle,e,162.4390,235.4080,172.4988,10.35514,0.0295781,0.90607189,255.2525,09/06.0/2021,2000,g  9.0,4.0
# From MPC101100
